ONEWEB-0509             
1 54127U 22138Q   24092.55290653  .00000022  00000+0  22947-4 0  9998
2 54127  87.9093 105.5218 0001790  86.8659 273.2679 13.19725287 70411
ONEWEB-0510             
1 54128U 22138R   24092.47319196 -.00000016  00000+0 -71119-4 0  9994
2 54128  87.9148  74.9572 0001906 100.8083 259.3264 13.20775268 72796
ONEWEB-0511             
1 54129U 22138S   24092.54973587 -.00000852  00000+0 -21602-2 0  9991
2 54129  87.9096 105.5249 0002213  78.9044 281.2338 13.19727178 70446
ONEWEB-0512             
1 54130U 22138T   24092.46601403  .00000043  00000+0  74958-4 0  9993
2 54130  87.9102 105.5516 0001594  76.4228 283.7082 13.19723701 70408
ONEWEB-0513             
1 54131U 22138U   24092.58844175 -.00000006  00000+0 -47412-4 0  9998
2 54131  87.9099 105.5231 0001817  70.3705 289.7624 13.19724181 70309
ONEWEB-0514             
1 54132U 22138V   24092.55761905 -.00000355  00000+0 -91896-3 0  9996
2 54132  87.9096 105.5283 0001982  89.2973 270.8387 13.19725025 70432
ONEWEB-0515             
1 54133U 22138W   24092.46055198 -.00000317  00000+0 -81176-3 0  9995
2 54133  87.9147  74.9402 0002327 114.8538 245.2838 13.20771184 72818
ONEWEB-0516             
1 54134U 22138X   24092.53235380  .00000102  00000+0  22257-3 0  9992
2 54134  87.9101 105.5392 0001807  91.2217 268.9123 13.19723864 70437
